CBERS4
1 40336U 14079A   18094.43139907 -.00001186  00000-0 -39775-3 0  9997
2 40336  98.4192 167.8074 0000810  83.2181 276.9096 14.35474505174195
